{"type": "FeatureCollection", "features": [ {"type": "Feature", "properties": {"norad_id": 66866, "name": "STARLINK-36126", "group": "last-30-days", "lat": 23.973222363793226, "lon": 122.24962831338064, "alt_km": 333.99875065601645, "timestamp": "2025-12-17T09:00:15.891951+00:00", "meta": {"OBJECT_NAME": "STARLINK-36126", "OBJECT_ID": "2025-281U", "EPOCH": "2025-12-16T22:00:03.000096", "MEAN_MOTION": 15.79149095, "ECCENTRICITY": 0.0001595, "INCLINATION": 43.0009, "RA_OF_ASC_NODE": 96.5439, "ARG_OF_PERICENTER": 272.6831, "MEAN_ANOMALY": 35.5994, "EPHEMERIS_TYPE": 0, "CLASSIFICATION_TYPE": "U", "NORAD_CAT_ID": 66866, "ELEMENT_SET_NO": 999, "REV_AT_EPOCH": 210, "BSTAR": -0.009500635, "MEAN_MOTION_DOT": -0.01538919, "MEAN_MOTION_DDOT": 0}, "tle": {"line1": "1 66866U 25281U   25350.91670139 -.01538919  00000+0 -95006-2 0  9990", "line2": "2 66866  43.0009  96.5439 0001595 272.6831  35.5994 15.79149095  2103"}}, "geometry": {"type": "Point", "coordinates": [122.24962831338064, 23.973222363793226]}}, {"type": "Feature", "properties": {"norad_id": 66867, "name": "STARLINK-36101", "group": "last-30-days", "lat": 25.367578529375866, "lon": 124.32667868457571, "alt_km": 334.2569050816355, "timestamp": "2025-12-17T09:00:15.891961+00:00", "meta": {"OBJECT_NAME": "STARLINK-36101", "OBJECT_ID": "2025-281V", "EPOCH": "2025-12-16T22:00:03.000096", "MEAN_MOTION": 15.79027981, "ECCENTRICITY": 0.00015954, "INCLINATION": 43.001, "RA_OF_ASC_NODE": 96.5374, "ARG_OF_PERICENTER": 273.5926, "MEAN_ANOMALY": 37.2734, "EPHEMERIS_TYPE": 0, "CLASSIFICATION_TYPE": "U", "NORAD_CAT_ID": 66867, "ELEMENT_SET_NO": 999, "REV_AT_EPOCH": 191, "BSTAR": -0.0098107617, "MEAN_MOTION_DOT": -0.01575045, "MEAN_MOTION_DDOT": 0}, "tle": {"line1": "1 66867U 25281V   25350.91670139 -.01575045  00000+0 -98108-2 0  9998", "line2": "2 66867  43.0010  96.5374 0001595 273.5926  37.2734 15.79027981  1917"}}, "geometry": {"type": "Point", "coordinates": [124.32667868457571, 25.367578529375866]}}, {"type": "Feature", "properties": {"norad_id": 66868, "name": "STARLINK-36108", "group": "last-30-days", "lat": 26.747582212355283, "lon": 126.47649514126309, "alt_km": 334.80338185344226, "timestamp": "2025-12-17T09:00:15.891974+00:00", "meta": {"OBJECT_NAME": "STARLINK-36108", "OBJECT_ID": "2025-281W", "EPOCH": "2025-12-16T22:00:03.000096", "MEAN_MOTION": 15.78866935, "ECCENTRICITY": 0.00018143, "INCLINATION": 43.0009, "RA_OF_ASC_NODE": 96.5302, "ARG_OF_PERICENTER": 268.5033, "MEAN_ANOMALY": 45.0212, "EPHEMERIS_TYPE": 0, "CLASSIFICATION_TYPE": "U", "NORAD_CAT_ID": 66868, "ELEMENT_SET_NO": 999, "REV_AT_EPOCH": 191, "BSTAR": -0.01000493, "MEAN_MOTION_DOT": -0.01592051, "MEAN_MOTION_DDOT": 0}, "tle": {"line1": "1 66868U 25281W   25350.91670139 -.01592051  00000+0 -10005-1 0  9994", "line2": "2 66868  43.0009  96.5302 0001814 268.5033  45.0212 15.78866935  1911"}}, "geometry": {"type": "Point", "coordinates": [126.47649514126309, 26.747582212355283]}}, {"type": "Feature", "properties": {"norad_id": 66869, "name": "STARLINK-36092", "group": "last-30-days", "lat": 27.97874994089237, "lon": 128.48596378033113, "alt_km": 334.7453313141741, "timestamp": "2025-12-17T09:00:15.891986+00:00", "meta": {"OBJECT_NAME": "STARLINK-36092", "OBJECT_ID": "2025-281X", "EPOCH": "2025-12-16T22:00:03.000096", "MEAN_MOTION": 15.78771178, "ECCENTRICITY": 0.0001749, "INCLINATION": 43.001, "RA_OF_ASC_NODE": 96.5246, "ARG_OF_PERICENTER": 276.1459, "MEAN_ANOMALY": 39.7162, "EPHEMERIS_TYPE": 0, "CLASSIFICATION_TYPE": "U", "NORAD_CAT_ID": 66869, "ELEMENT_SET_NO": 999, "REV_AT_EPOCH": 210, "BSTAR": -0.010128894, "MEAN_MOTION_DOT": -0.01603, "MEAN_MOTION_DDOT": 0}, "tle": {"line1": "1 66869U 25281X   25350.91670139 -.01603000  00000+0 -10129-1 0  9999", "line2": "2 66869  43.0010  96.5246 0001749 276.1459  39.7162 15.78771178  2105"}}, "geometry": {"type": "Point", "coordinates": [128.48596378033113, 27.97874994089237]}}, {"type": "Feature", "properties": {"norad_id": 66870, "name": "STARLINK-36114", "group": "last-30-days", "lat": 29.26210772527246, "lon": 130.68597482297076, "alt_km": 335.2184506708836, "timestamp": "2025-12-17T09:00:15.891996+00:00", "meta": {"OBJECT_NAME": "STARLINK-36114", "OBJECT_ID": "2025-281Y", "EPOCH": "2025-12-16T22:00:03.000096", "MEAN_MOTION": 15.78605172, "ECCENTRICITY": 0.00016913, "INCLINATION": 43.0007, "RA_OF_ASC_NODE": 96.5179, "ARG_OF_PERICENTER": 270.3966, "MEAN_ANOMALY": 48.0805, "EPHEMERIS_TYPE": 0, "CLASSIFICATION_TYPE": "U", "NORAD_CAT_ID": 66870, "ELEMENT_SET_NO": 999, "REV_AT_EPOCH": 197, "BSTAR": -0.010335549, "MEAN_MOTION_DOT": -0.01620565, "MEAN_MOTION_DDOT": 0}, "tle": {"line1": "1 66870U 25281Y   25350.91670139 -.01620565  00000+0 -10336-1 0  9996", "line2": "2 66870  43.0007  96.5179 0001691 270.3966  48.0805 15.78605172  1974"}}, "geometry": {"type": "Point", "coordinates": [130.68597482297076, 29.26210772527246]}}, {"type": "Feature", "properties": {"norad_id": 66871, "name": "STARLINK-36095", "group": "last-30-days", "lat": 30.49532207916673, "lon": 132.9163119468394, "alt_km": 335.54684040868506, "timestamp": "2025-12-17T09:00:15.892008+00:00", "meta": {"OBJECT_NAME": "STARLINK-36095", "OBJECT_ID": "2025-281Z", "EPOCH": "2025-12-16T22:00:03.000096", "MEAN_MOTION": 15.78423041, "ECCENTRICITY": 0.00017196, "INCLINATION": 43.0006, "RA_OF_ASC_NODE": 96.5108, "ARG_OF_PERICENTER": 273.5859, "MEAN_ANOMALY": 47.4949, "EPHEMERIS_TYPE": 0, "CLASSIFICATION_TYPE": "U", "NORAD_CAT_ID": 66871, "ELEMENT_SET_NO": 999, "REV_AT_EPOCH": 210, "BSTAR": -0.01047741, "MEAN_MOTION_DOT": -0.0166082, "MEAN_MOTION_DDOT": 0}, "tle": {"line1": "1 66871U 25281Z   25350.91670139 -.01660820  00000+0 -10477-1 0  9991", "line2": "2 66871  43.0006  96.5108 0001719 273.5859  47.4949 15.78423041  2104"}}, "geometry": {"type": "Point", "coordinates": [132.9163119468394, 30.49532207916673]}}, {"type": "Feature", "properties": {"norad_id": 66872, "name": "STARLINK-36082", "group": "last-30-days", "lat": 31.56641693641721, "lon": 134.9613133985973, "alt_km": 335.50670531651576, "timestamp": "2025-12-17T09:00:15.892018+00:00", "meta": {"OBJECT_NAME": "STARLINK-36082", "OBJECT_ID": "2025-281AA", "EPOCH": "2025-12-16T22:00:03.000096", "MEAN_MOTION": 15.78352716, "ECCENTRICITY": 0.00015879, "INCLINATION": 43.0007, "RA_OF_ASC_NODE": 96.5052, "ARG_OF_PERICENTER": 276.5489, "MEAN_ANOMALY": 46.711, "EPHEMERIS_TYPE": 0, "CLASSIFICATION_TYPE": "U", "NORAD_CAT_ID": 66872, "ELEMENT_SET_NO": 999, "REV_AT_EPOCH": 197, "BSTAR": -0.010561523, "MEAN_MOTION_DOT": -0.01667792, "MEAN_MOTION_DDOT": 0}, "tle": {"line1": "1 66872U 25281AA  25350.91670139 -.01667792  00000+0 -10562-1 0  9992", "line2": "2 66872  43.0007  96.5052 0001587 276.5489  46.7110 15.78352716  1975"}}, "geometry": {"type": "Point", "coordinates": [134.9613133985973, 31.56641693641721]}}, {"type": "Feature", "properties": {"norad_id": 66873, "name": "STARLINK-36128", "group": "last-30-days", "lat": 34.65826266995095, "lon": 141.59158764368914, "alt_km": 336.2169729227526, "timestamp": "2025-12-17T09:00:15.892029+00:00", "meta": {"OBJECT_NAME": "STARLINK-36128", "OBJECT_ID": "2025-281AB", "EPOCH": "2025-12-16T22:00:03.000096", "MEAN_MOTION": 15.77984001, "ECCENTRICITY": 0.00015004, "INCLINATION": 43.0005, "RA_OF_ASC_NODE": 96.4873, "ARG_OF_PERICENTER": 277.9735, "MEAN_ANOMALY": 52.2934, "EPHEMERIS_TYPE": 0, "CLASSIFICATION_TYPE": "U", "NORAD_CAT_ID": 66873, "ELEMENT_SET_NO": 999, "REV_AT_EPOCH": 210, "BSTAR": -0.011027107, "MEAN_MOTION_DOT": -0.01707097, "MEAN_MOTION_DDOT": 0}, "tle": {"line1": "1 66873U 25281AB  25350.91670139 -.01707097  00000+0 -11027-1 0  9993", "line2": "2 66873  43.0005  96.4873 0001500 277.9735  52.2934 15.77984001  2107"}}, "geometry": {"type": "Point", "coordinates": [141.59158764368914, 34.65826266995095]}}, {"type": "Feature", "properties": {"norad_id": 66874, "name": "STARLINK-36129", "group": "last-30-days", "lat": 32.68193359758627, "lon": 137.21562051396555, "alt_km": 336.04772443962156, "timestamp": "2025-12-17T09:00:15.892041+00:00", "meta": {"OBJECT_NAME": "STARLINK-36129", "OBJECT_ID": "2025-281AC", "EPOCH": "2025-12-16T22:00:03.000096", "MEAN_MOTION": 15.78191964, "ECCENTRICITY": 0.00017737, "INCLINATION": 43.0007, "RA_OF_ASC_NODE": 96.4991, "ARG_OF_PERICENTER": 273.8713, "MEAN_ANOMALY": 51.8892, "EPHEMERIS_TYPE": 0, "CLASSIFICATION_TYPE": "U", "NORAD_CAT_ID": 66874, "ELEMENT_SET_NO": 999, "REV_AT_EPOCH": 210, "BSTAR": -0.010813193, "MEAN_MOTION_DOT": -0.01692084, "MEAN_MOTION_DDOT": 0}, "tle": {"line1": "1 66874U 25281AC  25350.91670139 -.01692084  00000+0 -10813-1 0  9995", "line2": "2 66874  43.0007  96.4991 0001773 273.8713  51.8892 15.78191964  2101"}}, "geometry": {"type": "Point", "coordinates": [137.21562051396555, 32.68193359758627]}}, {"type": "Feature", "properties": {"norad_id": 66875, "name": "STARLINK-36053", "group": "last-30-days", "lat": 35.59008621421889, "lon": 143.86572842788132, "alt_km": 336.51743291199455, "timestamp": "2025-12-17T09:00:15.892051+00:00", "meta": {"OBJECT_NAME": "STARLINK-36053", "OBJECT_ID": "2025-281AD", "EPOCH": "2025-12-16T22:00:03.000096", "MEAN_MOTION": 15.77853798, "ECCENTRICITY": 0.0001525, "INCLINATION": 43.0006, "RA_OF_ASC_NODE": 96.4808, "ARG_OF_PERICENTER": 277.7766, "MEAN_ANOMALY": 54.7968, "EPHEMERIS_TYPE": 0, "CLASSIFICATION_TYPE": "U", "NORAD_CAT_ID": 66875, "ELEMENT_SET_NO": 999, "REV_AT_EPOCH": 210, "BSTAR": -0.011159392, "MEAN_MOTION_DOT": -0.01716205, "MEAN_MOTION_DDOT": 0}, "tle": {"line1": "1 66875U 25281AD  25350.91670139 -.01716205  00000+0 -11159-1 0  9992", "line2": "2 66875  43.0006  96.4808 0001525 277.7766  54.7968 15.77853798  2109"}}, "geometry": {"type": "Point", "coordinates": [143.86572842788132, 35.59008621421889]}}]}